CTC2_L_00517001-01
1 57940U 23250A   26037.47797454  .00000000  00000+0  00000-0 0  9991
2 57940  97.4000   0.0000 0000000   0.0000   0.0000 15.21936321    11
CTC2_L_00517001-02
1 57941U 24665GK  26037.47797454  .00000000  00000+0  00000-0 0  9993
2 57941  97.4000   0.0000 0000000   0.0000 180.0000 15.21936321    11
CTC2_L_00517002-01
1 57942U 22308DF  26037.47797454  .00000000  00000+0  00000-0 0  9996
2 57942  97.4000   3.0000 0000000   0.0000   6.0000 15.21936321    12
CTC2_L_00517002-02
1 57943U 25189EL  26037.47797454  .00000000  00000+0  00000-0 0  9997
2 57943  97.4000   3.0000 0000000   0.0000 186.0000 15.21936321    12
CTC2_L_00517003-01
1 57944U 24722WI  26037.47797454  .00000000  00000+0  00000-0 0  9990
2 57944  97.4000   6.0000 0000000   0.0000  12.0000 15.21936321    14
CTC2_L_00517003-02
1 57945U 26779QD  26037.47797454  .00000000  00000+0  00000-0 0  9995
2 57945  97.4000   6.0000 0000000   0.0000 192.0000 15.21936321    14
CTC2_L_00517004-01
1 57946U 23336NV  26037.47797454  .00000000  00000+0  00000-0 0  9992
2 57946  97.4000   9.0000 0000000   0.0000  18.0000 15.21936321    15
CTC2_L_00517004-02
1 57947U 24879UR  26037.47797454  .00000000  00000+0  00000-0 0  9996
2 57947  97.4000   9.0000 0000000   0.0000 198.0000 15.21936321    15
CTC2_L_00517005-01
1 57948U 24616AW  26037.47797454  .00000000  00000+0  00000-0 0  9996
2 57948  97.4000  12.0000 0000000   0.0000  24.0000 15.21936321    18
CTC2_L_00517005-02
1 57949U 25581JR  26037.47797454  .00000000  00000+0  00000-0 0  9999
2 57949  97.4000  12.0000 0000000   0.0000 204.0000 15.21936321    19
CTC2_L_00517006-01
1 57950U 22572VG  26037.47797454  .00000000  00000+0  00000-0 0  9998
2 57950  97.4000  15.0000 0000000   0.0000  30.0000 15.21936321    11
CTC2_L_00517006-02
1 57951U 23448QY  26037.47797454  .00000000  00000+0  00000-0 0  9992
2 57951  97.4000  15.0000 0000000   0.0000 210.0000 15.21936321    12
CTC2_L_00517007-01
1 57952U 24311RC  26037.47797454  .00000000  00000+0  00000-0 0  9993
2 57952  97.4000  18.0000 0000000   0.0000  36.0000 15.21936321    12
CTC2_L_00517007-02
1 57953U 22576HE  26037.47797454  .00000000  00000+0  00000-0 0  9995
2 57953  97.4000  18.0000 0000000   0.0000 216.0000 15.21936321    13
CTC2_L_00517008-01
1 57954U 25797FW  26037.47797454  .00000000  00000+0  00000-0 0  9994
2 57954  97.4000  21.0000 0000000   0.0000  42.0000 15.21936321    15
CTC2_L_00517008-02
1 57955U 23367AT  26037.47797454  .00000000  00000+0  00000-0 0  9996
2 57955  97.4000  21.0000 0000000   0.0000 222.0000 15.21936321    16
CTC2_L_00517009-01
1 57956U 24506EY  26037.47797454  .00000000  00000+0  00000-0 0  9993
2 57956  97.4000  24.0000 0000000   0.0000  48.0000 15.21936321    16
CTC2_L_00517009-02
1 57957U 22604KP  26037.47797454  .00000000  00000+0  00000-0 0  9991
2 57957  97.4000  24.0000 0000000   0.0000 228.0000 15.21936321    17
CTC2_L_00517010-01
1 57958U 25349RJ  26037.47797454  .00000000  00000+0  00000-0 0  9991
2 57958  97.4000  27.0000 0000000   0.0000  54.0000 15.21936321    18
CTC2_L_00517010-02
1 57959U 22043GS  26037.47797454  .00000000  00000+0  00000-0 0  9990
2 57959  97.4000  27.0000 0000000   0.0000 234.0000 15.21936321    19
CTC2_L_00517011-01
1 57960U 26890LJ  26037.47797454  .00000000  00000+0  00000-0 0  9996
2 57960  97.4000  30.0000 0000000   0.0000  60.0000 15.21936321    12
CTC2_L_00517011-02
1 57961U 22273MA  26037.47797454  .00000000  00000+0  00000-0 0  9998
2 57961  97.4000  30.0000 0000000   0.0000 240.0000 15.21936321    13
CTC2_L_00517012-01
1 57962U 23866QP  26037.47797454  .00000000  00000+0  00000-0 0  9998
2 57962  97.4000  33.0000 0000000   0.0000  66.0000 15.21936321    13
CTC2_L_00517012-02
1 57963U 26841GO  26037.47797454  .00000000  00000+0  00000-0 0  9995
2 57963  97.4000  33.0000 0000000   0.0000 246.0000 15.21936321    14
CTC2_L_00517013-01
1 57964U 26942LM  26037.47797454  .00000000  00000+0  00000-0 0  9998
2 57964  97.4000  36.0000 0000000   0.0000  72.0000 15.21936321    15
CTC2_L_00517013-02
1 57965U 26863YD  26037.47797454  .00000000  00000+0  00000-0 0  9991
2 57965  97.4000  36.0000 0000000   0.0000 252.0000 15.21936321    16
CTC2_L_00517014-01
1 57966U 26900BR  26037.47797454  .00000000  00000+0  00000-0 0  9994
2 57966  97.4000  39.0000 0000000   0.0000  78.0000 15.21936321    16
CTC2_L_00517014-02
1 57967U 23756IA  26037.47797454  .00000000  00000+0  00000-0 0  9991
2 57967  97.4000  39.0000 0000000   0.0000 258.0000 15.21936321    17
CTC2_L_00517015-01
1 57968U 22973XP  26037.47797454  .00000000  00000+0  00000-0 0  9992
2 57968  97.4000  42.0000 0000000   0.0000  84.0000 15.21936321    19
CTC2_L_00517015-02
1 57969U 23965VF  26037.47797454  .00000000  00000+0  00000-0 0  9995
2 57969  97.4000  42.0000 0000000   0.0000 264.0000 15.21936321    10
CTC2_L_00517016-01
1 57970U 24683CG  26037.47797454  .00000000  00000+0  00000-0 0  9995
2 57970  97.4000  45.0000 0000000   0.0000  90.0000 15.21936321    12
CTC2_L_00517016-02
1 57971U 23547LS  26037.47797454  .00000000  00000+0  00000-0 0  9994
2 57971  97.4000  45.0000 0000000   0.0000 270.0000 15.21936321    13
CTC2_L_00517017-01
1 57972U 26842N   26037.47797454  .00000000  00000+0  00000-0 0  9996
2 57972  97.4000  48.0000 0000000   0.0000  96.0000 15.21936321    13
CTC2_L_00517017-02
1 57973U 23735ZS  26037.47797454  .00000000  00000+0  00000-0 0  9995
2 57973  97.4000  48.0000 0000000   0.0000 276.0000 15.21936321    14
CTC2_L_00517018-01
1 57974U 26216PO  26037.47797454  .00000000  00000+0  00000-0 0  9993
2 57974  97.4000  51.0000 0000000   0.0000 102.0000 15.21936321    17
CTC2_L_00517018-02
1 57975U 24046XZ  26037.47797454  .00000000  00000+0  00000-0 0  9993
2 57975  97.4000  51.0000 0000000   0.0000 282.0000 15.21936321    17
CTC2_L_00517019-01
1 57976U 22794FZ  26037.47797454  .00000000  00000+0  00000-0 0  9992
2 57976  97.4000  54.0000 0000000   0.0000 108.0000 15.21936321    18
CTC2_L_00517019-02
1 57977U 26883II  26037.47797454  .00000000  00000+0  00000-0 0  9996
2 57977  97.4000  54.0000 0000000   0.0000 288.0000 15.21936321    18
CTC2_L_00517020-01
1 57978U 22664CD  26037.47797454  .00000000  00000+0  00000-0 0  9990
2 57978  97.4000  57.0000 0000000   0.0000 114.0000 15.21936321    10
CTC2_L_00517020-02
1 57979U 25719IB  26037.47797454  .00000000  00000+0  00000-0 0  9995
2 57979  97.4000  57.0000 0000000   0.0000 294.0000 15.21936321    10
CTC2_L_00517021-01
1 57980U 24686CU  26037.47797454  .00000000  00000+0  00000-0 0  9999
2 57980  97.4000  60.0000 0000000   0.0000 120.0000 15.21936321    14
CTC2_L_00517021-02
1 57981U 25439CB  26037.47797454  .00000000  00000+0  00000-0 0  9997
2 57981  97.4000  60.0000 0000000   0.0000 300.0000 15.21936321    15
CTC2_L_00517022-01
1 57982U 26193HN  26037.47797454  .00000000  00000+0  00000-0 0  9996
2 57982  97.4000  63.0000 0000000   0.0000 126.0000 15.21936321    15
CTC2_L_00517022-02
1 57983U 24124PT  26037.47797454  .00000000  00000+0  00000-0 0  9999
2 57983  97.4000  63.0000 0000000   0.0000 306.0000 15.21936321    16
CTC2_L_00517023-01
1 57984U 23340JY  26037.47797454  .00000000  00000+0  00000-0 0  9999
2 57984  97.4000  66.0000 0000000   0.0000 132.0000 15.21936321    17
CTC2_L_00517023-02
1 57985U 26486LN  26037.47797454  .00000000  00000+0  00000-0 0  9994
2 57985  97.4000  66.0000 0000000   0.0000 312.0000 15.21936321    18
CTC2_L_00517024-01
1 57986U 25415BW  26037.47797454  .00000000  00000+0  00000-0 0  9996
2 57986  97.4000  69.0000 0000000   0.0000 138.0000 15.21936321    18
CTC2_L_00517024-02
1 57987U 23893YI  26037.47797454  .00000000  00000+0  00000-0 0  9995
2 57987  97.4000  69.0000 0000000   0.0000 318.0000 15.21936321    19
CTC2_L_00517025-01
1 57988U 24341LF  26037.47797454  .00000000  00000+0  00000-0 0  9995
2 57988  97.4000  72.0000 0000000   0.0000 144.0000 15.21936321    11
CTC2_L_00517025-02
1 57989U 22214UR  26037.47797454  .00000000  00000+0  00000-0 0  9993
2 57989  97.4000  72.0000 0000000   0.0000 324.0000 15.21936321    12
CTC2_L_00517026-01
1 57990U 22947LH  26037.47797454  .00000000  00000+0  00000-0 0  9998
2 57990  97.4000  75.0000 0000000   0.0000 150.0000 15.21936321    14
CTC2_L_00517026-02
1 57991U 26642CW  26037.47797454  .00000000  00000+0  00000-0 0  9995
2 57991  97.4000  75.0000 0000000   0.0000 330.0000 15.21936321    15
CTC2_L_00517027-01
1 57992U 26786CS  26037.47797454  .00000000  00000+0  00000-0 0  9995
2 57992  97.4000  78.0000 0000000   0.0000 156.0000 15.21936321    15
CTC2_L_00517027-02
1 57993U 24757JQ  26037.47797454  .00000000  00000+0  00000-0 0  9992
2 57993  97.4000  78.0000 0000000   0.0000 336.0000 15.21936321    16
CTC2_L_00517028-01
1 57994U 22379RO  26037.47797454  .00000000  00000+0  00000-0 0  9991
2 57994  97.4000  81.0000 0000000   0.0000 162.0000 15.21936321    18
CTC2_L_00517028-02
1 57995U 23400NI  26037.47797454  .00000000  00000+0  00000-0 0  9998
2 57995  97.4000  81.0000 0000000   0.0000 342.0000 15.21936321    19
CTC2_L_00517029-01
1 57996U 24418DU  26037.47797454  .00000000  00000+0  00000-0 0  9999
2 57996  97.4000  84.0000 0000000   0.0000 168.0000 15.21936321    19
CTC2_L_00517029-02
1 57997U 22872TR  26037.47797454  .00000000  00000+0  00000-0 0  9992
2 57997  97.4000  84.0000 0000000   0.0000 348.0000 15.21936321    10
CTC2_L_00517030-01
1 57998U 23332FH  26037.47797454  .00000000  00000+0  00000-0 0  9995
2 57998  97.4000  87.0000 0000000   0.0000 174.0000 15.21936321    11
CTC2_L_00517030-02
1 57999U 23939TV  26037.47797454  .00000000  00000+0  00000-0 0  9999
2 57999  97.4000  87.0000 0000000   0.0000 354.0000 15.21936321    12
CTC2_L_00517031-01
1 58000U 24168SS  26037.47797454  .00000000  00000+0  00000-0 0  9998
2 58000  97.4000  90.0000 0000000   0.0000 180.0000 15.21936321    17
CTC2_L_00517031-02
1 58001U 22802VM  26037.47797454  .00000000  00000+0  00000-0 0  9992
2 58001  97.4000  90.0000 0000000   0.0000   0.0000 15.21936321    19
